{"spkid": "20474231", "covariance": {"epoch": "2459397.5", "data": [["7.905409243864274E-16", "-1.170481111991634E-15", "1.05524293512876E-13", "9.799948600999153E-14", "-4.904948159431322E-14", "-1.805951889903497E-14", "-2.243231651259978E-23"], ["-1.170481111991634E-15", "1.739168643225332E-15", "-1.330745091440341E-13", "-1.478544724357504E-13", "9.039225217713727E-14", "2.329296542329567E-14", "5.599413425665117E-23"], ["1.05524293512876E-13", "-1.330745091440341E-13", "1.407872896026206E-10", "-1.346505339306497E-11", "1.024616785440045E-10", "-1.929534825175621E-11", "7.736843301546801E-20"], ["9.799948600999153E-14", "-1.478544724357504E-13", "-1.346505339306497E-11", "1.77114811003993E-9", "-1.759134456031242E-9", "1.31961456276006E-10", "2.910253778256188E-20"], ["-4.904948159431322E-14", "9.039225217713727E-14", "1.024616785440045E-10", "-1.759134456031242E-9", "1.812288311170576E-9", "-1.442466241282499E-10", "2.554575802411857E-20"], ["-1.805951889903497E-14", "2.329296542329567E-14", "-1.929534825175621E-11", "1.31961456276006E-10", "-1.442466241282499E-10", "2.626092016431174E-11", "-6.868127968149197E-21"], ["-2.243231651259978E-23", "5.599413425665117E-23", "7.736843301546801E-20", "2.910253778256188E-20", "2.554575802411857E-20", "-6.868127968149197E-21", "9.967635695926147E-29"]], "elements": [{"label": "e", "units": null, "value": ".4985374030504887", "title": "eccentricity", "sigma": 2.81165596114892e-08, "name": "e"}, {"label": "q", "units": "au", "title": "perihelion distance", "value": ".7369347954048957", "name": "q", "sigma": 4.1703340912034e-08}, {"units": "TDB", "title": "time of perihelion passage", "value": "2459095.876349797300", "sigma": 1.1865381983005e-05, "name": "tp", "label": "tp"}, {"sigma": 4.20850105149082e-05, "name": "om", "value": "156.2962283057782", "title": "longitude of the ascending node", "units": "deg", "label": "node"}, {"sigma": 4.25709796830021e-05, "name": "w", "units": "deg", "value": "312.8693255716862", "title": "argument of perihelion", "label": "peri"}, {"title": "inclination", "value": "5.425446163811862", "units": "deg", "name": "i", "sigma": 5.12454097108334e-06, "label": "i"}], "labels": ["e", "q", "tp", "node", "peri", "i", "A2"]}, "elements": [{"label": "e", "units": null, "value": ".4984280080328174", "title": "eccentricity", "sigma": "2.809E-8", "name": "e"}, {"label": "a", "units": "au", "value": "1.469582628874977", "title": "semi-major axis", "name": "a", "sigma": "7.1756E-9"}, {"units": "au", "value": ".737101486525191", "title": "perihelion distance", "sigma": "4.1821E-8", "name": "q", "label": "q"}, {"name": "i", "sigma": "5.1261E-6", "units": "deg", "value": "5.42707423804047", "title": "inclination; angle with respect to x-y ecliptic plane", "label": "i"}, {"label": "node", "units": "deg", "title": "longitude of the ascending node", "value": "156.266933905128", "sigma": "4.2063E-5", "name": "om"}, {"sigma": "4.2549E-5", "name": "w", "units": "deg", "title": "argument of perihelion", "value": "312.8905046154578", "label": "peri"}, {"label": "M", "sigma": "1.2595E-5", "name": "ma", "title": "mean anomaly", "value": "84.31261298056418", "units": "deg"}, {"label": "tp", "name": "tp", "sigma": "2.1735E-5", "value": "2461048.101922035345", "title": "time of perihelion passage", "units": "TDB"}, {"units": "d", "value": "650.7129375758145", "title": "sidereal orbital period", "sigma": "4.7659E-6", "name": "per", "label": "period"}, {"name": "n", "sigma": "4.052E-9", "units": "deg/d", "value": ".5532393459720576", "title": "mean motion", "label": "n"}, {"label": "Q", "name": "ad", "sigma": "1.0752E-8", "title": "aphelion distance", "value": "2.202063771224763", "units": "au"}], "epoch": "2461200.5"}